NORAD_CAT_ID,OBJECT_NAME,OBJECT_TYPE,EPOCH,MEAN_MOTION,ECCENTRICITY,INCLINATION,RA_OF_ASC_NODE,ARG_OF_PERICENTER,MEAN_ANOMALY,BSTAR,MEAN_MOTION_DOT,MEAN_MOTION_DDOT,TLE_LINE0,TLE_LINE1,TLE_LINE2,SEMIMAJOR_AXIS,PERIOD,APOGEE,PERIGEE,DECAYED
53532.0,STARLINK-4483,PAYLOAD,2024-07-27 09:41:33,15.08847529,0.000141,53.2152,204.0181,91.9045,268.2108,7.9876e-05,9.84e-06,0.0,0 STARLINK-4483,1 53532U 22101F   24209.40386017  .00000984  00000-0  79876-4 0  9992,2 53532  53.2152 204.0181 0001410  91.9045 268.2108 15.08847529107057,6917.857,95.437,540.698,538.747,0.0
53532.0,STARLINK-4483,PAYLOAD,2024-07-28 04:46:12,15.08835073,0.0001412,53.2155,200.4499,91.8185,268.2969,-1.259e-05,-4.88e-06,0.0,0 STARLINK-4483,1 53532U 22101F   24210.19875145 -.00000488  00000-0 -12590-4 0  9996,2 53532  53.2155 200.4499 0001412  91.8185 268.2969 15.08835073107177,6917.895,95.438,540.737,538.784,0.0
53532.0,STARLINK-4483,PAYLOAD,2024-07-28 06:21:35,15.08835935,0.0001422,53.2156,200.1521,92.7945,267.321,-5.3232e-06,-3.73e-06,0.0,0 STARLINK-4483,1 53532U 22101F   24210.26499066 -.00000373  00000-0 -53232-5 0  9990,2 53532  53.2156 200.1521 0001422  92.7945 267.3210 15.08835935107183,6917.893,95.438,540.742,538.774,0.0
53532.0,STARLINK-4483,PAYLOAD,2024-07-29 09:23:08,15.08837144,0.0001418,53.2159,195.0968,92.0293,268.0862,-1.3736e-05,-5.07e-06,0.0,0 STARLINK-4483,1 53532U 22101F   24211.39107263 -.00000507  00000-0 -13736-4 0  9993,2 53532  53.2159 195.0968 0001418  92.0293 268.0862 15.08837144107351,6917.889,95.438,540.735,538.773,0.0
53532.0,STARLINK-4483,PAYLOAD,2024-07-29 15:44:41,15.08835326,0.000141,53.2161,193.9073,89.7277,270.3877,2.7086e-05,1.43e-06,0.0,0 STARLINK-4483,1 53532U 22101F   24211.65603355  .00000143  00000-0  27086-4 0  9992,2 53532  53.2161 193.9073 0001410  89.7277 270.3877 15.08835326107391,6917.895,95.438,540.735,538.784,0.0
53532.0,STARLINK-4483,PAYLOAD,2024-07-30 06:03:09,15.08835756,0.0001408,53.216,191.2318,96.048,264.0673,6.9868e-05,8.24e-06,0.0,0 STARLINK-4483,1 53532U 22101F   24212.25219440  .00000824  00000-0  69868-4 0  9997,2 53532  53.2160 191.2318 0001408  96.0480 264.0673 15.08835756107488,6917.893,95.438,540.732,538.784,0.0
53532.0,STARLINK-4483,PAYLOAD,2024-07-30 15:35:28,15.08840115,0.0001443,53.2166,189.4471,89.3738,270.7419,0.00011279,1.508e-05,0.0,0 STARLINK-4483,1 53532U 22101F   24212.64963159  .00001508  00000-0  11279-3 0  9995,2 53532  53.2166 189.4471 0001443  89.3738 270.7419 15.08840115107547,6917.88,95.438,540.743,538.747,0.0
53532.0,STARLINK-4483,PAYLOAD,2024-07-31 05:53:56,15.08846367,0.0001473,53.2164,186.7709,86.9747,273.1414,0.00013435,1.851e-05,0.0,0 STARLINK-4483,1 53532U 22101F   24213.24578754  .00001851  00000-0  13435-3 0  9992,2 53532  53.2164 186.7709 0001473  86.9747 273.1414 15.08846367107632,6917.861,95.437,540.745,538.707,0.0
53532.0,STARLINK-4483,PAYLOAD,2024-07-31 21:47:48,15.08834206,0.0001591,53.2168,183.7987,81.6697,278.4475,4.2629e-05,3.9e-06,0.0,0 STARLINK-4483,1 53532U 22101F   24213.90819937  .00000390  00000-0  42629-4 0  9991,2 53532  53.2168 183.7987 0001591  81.6697 278.4475 15.08834206107733,6917.898,95.438,540.864,538.662,0.0
53532.0,STARLINK-4483,PAYLOAD,2024-08-01 05:44:44,15.08836446,0.0001652,53.217,182.3112,78.3734,281.7443,9.5617e-06,-1.36e-06,0.0,0 STARLINK-4483,1 53532U 22101F   24214.23939990 -.00000136  00000-0  95617-5 0  9995,2 53532  53.2170 182.3112 0001652  78.3734 281.7443 15.08836446107789,6917.891,95.438,540.899,538.613,0.0
53532.0,STARLINK-4483,PAYLOAD,2024-08-01 21:38:34,15.08845879,0.000135,53.2165,179.3351,89.4851,270.6296,4.8484e-05,4.84e-06,0.0,0 STARLINK-4483,1 53532U 22101F   24214.90179037  .00000484  00000-0  48484-4 0  9991,2 53532  53.2165 179.3351 0001350  89.4851 270.6296 15.08845879107886,6917.862,95.437,540.661,538.794,0.0
53532.0,STARLINK-4483,PAYLOAD,2024-08-02 04:00:06,15.0885627,0.0001541,53.2164,178.1475,82.8061,277.3106,7.6692e-05,9.33e-06,0.0,0 STARLINK-4483,1 53532U 22101F   24215.16674298  .00000933  00000-0  76692-4 0  9990,2 53532  53.2164 178.1475 0001541  82.8061 277.3106 15.08856270107927,6917.831,95.437,540.762,538.63,0.0
53532.0,STARLINK-4483,PAYLOAD,2024-08-02 15:07:48,15.08851126,0.0001472,53.2157,176.0688,80.499,279.6169,3.9687e-05,3.44e-06,0.0,0 STARLINK-4483,1 53532U 22101F   24215.63042452  .00000344  00000-0  39687-4 0  9992,2 53532  53.2157 176.0688 0001472  80.4990 279.6169 15.08851126107996,6917.846,95.437,540.73,538.693,0.0
53532.0,STARLINK-4483,PAYLOAD,2024-08-03 03:50:54,15.08835987,0.0001577,53.2175,173.6857,101.9196,258.1973,3.4314e-06,-2.33e-06,0.0,0 STARLINK-4483,1 53532U 22101F   24216.16035717 -.00000233  00000-0  34314-5 0  9998,2 53532  53.2175 173.6857 0001577 101.9196 258.1973 15.08835987108072,6917.893,95.438,540.849,538.667,0.0
53532.0,STARLINK-4483,PAYLOAD,2024-08-03 07:01:40,15.08838551,0.0001616,53.2176,173.0904,99.226,260.8915,1.0759e-05,-1.17e-06,0.0,0 STARLINK-4483,1 53532U 22101F   24216.29283531 -.00000117  00000-0  10759-4 0  9998,2 53532  53.2176 173.0904 0001616  99.2260 260.8915 15.08838551108093,6917.885,95.438,540.868,538.632,0.0
53532.0,STARLINK-4483,PAYLOAD,2024-08-03 21:20:09,15.08833136,0.0001509,53.2173,170.4122,111.5406,248.5747,-2.9448e-05,-7.57e-06,0.0,0 STARLINK-4483,1 53532U 22101F   24216.88900055 -.00000757  00000-0 -29448-4 0  9996,2 53532  53.2173 170.4122 0001509 111.5406 248.5747 15.08833136108184,6917.901,95.438,540.81,538.722,0.0
53532.0,STARLINK-4483,PAYLOAD,2024-08-04 03:41:41,15.08843777,0.0001599,53.2166,169.2263,94.4966,265.6208,-4.7609e-05,-1.046e-05,0.0,0 STARLINK-4483,1 53532U 22101F   24217.15395580 -.00001046  00000-0 -47609-4 0  9999,2 53532  53.2166 169.2263 0001599  94.4966 265.6208 15.08843777108226,6917.869,95.437,540.84,538.628,0.0
53532.0,STARLINK-4483,PAYLOAD,2024-08-04 21:10:56,15.08838927,0.0001415,53.2161,165.9546,101.685,258.4301,0.00014666,2.047e-05,0.0,0 STARLINK-4483,1 53532U 22101F   24217.88259360  .00002047  00000-0  14666-3 0  9990,2 53532  53.2161 165.9546 0001415 101.6850 258.4301 15.08838927108335,6917.884,95.438,540.728,538.77,0.0
53532.0,STARLINK-4483,PAYLOAD,2024-08-05 03:32:28,15.08854521,0.0001388,53.2162,164.7692,92.267,267.8481,0.00043033,6.57e-05,0.0,0 STARLINK-4483,1 53532U 22101F   24218.14754949  .00006570  00000-0  43033-3 0  9998,2 53532  53.2162 164.7692 0001388  92.2670 267.8481 15.08854521108374,6917.836,95.437,540.661,538.741,0.0
53532.0,STARLINK-4483,PAYLOAD,2024-08-05 13:04:47,15.08846606,0.000117,53.2155,162.9826,85.933,274.1796,0.00013784,1.907e-05,0.0,0 STARLINK-4483,1 53532U 22101F   24218.54499099  .00001907  00000-0  13784-3 0  9993,2 53532  53.2155 162.9826 0001170  85.9330 274.1796 15.08846606108438,6917.86,95.437,540.535,538.916,0.0
53532.0,STARLINK-4483,PAYLOAD,2024-08-06 04:58:40,15.08818762,0.0001522,53.2175,160.0108,87.8998,272.2168,-0.00018988,-3.307e-05,0.0,0 STARLINK-4483,1 53532U 22101F   24219.20741400 -.00003307  00000-0 -18988-3 0  9992,2 53532  53.2175 160.0108 0001522  87.8998 272.2168 15.08818762108539,6917.945,95.439,540.863,538.757,0.0
53532.0,STARLINK-4483,PAYLOAD,2024-08-06 12:55:36,15.08827654,0.0001589,53.2179,158.525,90.9581,269.1593,-4.0387e-05,-9.3e-06,0.0,0 STARLINK-4483,1 53532U 22101F   24219.53861116 -.00000930  00000-0 -40387-4 0  9993,2 53532  53.2179 158.5250 0001589  90.9581 269.1593 15.08827654108581,6917.918,95.438,540.882,538.684,0.0
53532.0,STARLINK-4483,PAYLOAD,2024-08-06 19:17:08,15.08839587,0.0001323,53.2159,157.3316,77.3168,282.7972,0.00013634,1.883e-05,0.0,0 STARLINK-4483,1 53532U 22101F   24219.80356766  .00001883  00000-0  13634-3 0  9993,2 53532  53.2159 157.3316 0001323  77.3168 282.7972 15.08839587108620,6917.882,95.438,540.662,538.831,0.0
53532.0,STARLINK-4483,PAYLOAD,2024-08-07 01:38:40,15.08862461,0.0001325,53.2154,156.1434,72.4549,287.6587,0.0017104,0.00027055,0.0,0 STARLINK-4483,1 53532U 22101F   24220.06852995  .00027055  00000-0  17104-2 0  9992,2 53532  53.2154 156.1434 0001325  72.4549 287.6587 15.08862461108661,6917.812,95.436,540.593,538.76,0.0
53532.0,STARLINK-4483,PAYLOAD,2024-08-08 04:40:13,15.08883372,0.000143,53.215,151.0882,88.3491,271.7665,0.0023537,0.00037415,0.0,0 STARLINK-4483,1 53532U 22101F   24221.19459971  .00037415  00000-0  23537-2 0  9992,2 53532  53.2150 151.0882 0001430  88.3491 271.7665 15.08883372108831,6917.748,95.435,540.602,538.624,0.0
53532.0,STARLINK-4483,PAYLOAD,2024-08-09 04:31:00,15.08865263,0.0001641,53.2161,146.6269,94.7444,265.3735,0.0017126,0.00027092,0.0,0 STARLINK-4483,1 53532U 22101F   24222.18819940  .00027092  00000-0  17126-2 0  9995,2 53532  53.2161 146.6269 0001641  94.7444 265.3735 15.08865263108987,6917.803,95.436,540.803,538.533,0.0
53532.0,STARLINK-4483,PAYLOAD,2024-08-09 12:27:56,15.08848501,0.000117,53.2154,145.1405,99.6539,260.4586,0.00066436,0.00010304,0.0,0 STARLINK-4483,1 53532U 22101F   24222.51940106  .00010304  00000-0  66436-3 0  9998,2 53532  53.2154 145.1405 0001170  99.6539 260.4586 15.08848501109034,6917.854,95.437,540.529,538.91,0.0
53532.0,STARLINK-4483,PAYLOAD,2024-08-09 18:49:29,15.08827446,0.0002254,53.216,143.9499,101.188,258.9365,0.0010619,0.00016647,0.0,0 STARLINK-4483,1 53532U 22101F   24222.78436706  .00016647  00000-0  10619-2 0  9990,2 53532  53.2160 143.9499 0002254 101.1880 258.9365 15.08827446109078,6917.919,95.438,541.343,538.224,0.0
53532.0,STARLINK-4483,PAYLOAD,2024-08-10 04:21:47,15.08848116,0.0001854,53.216,142.1644,114.7968,245.3217,0.0012802,0.0002015,0.0,0 STARLINK-4483,1 53532U 22101F   24223.18180382  .00020150  00000-0  12802-2 0  9991,2 53532  53.2160 142.1644 0001854 114.7968 245.3217 15.08848116109133,6917.856,95.437,541.003,538.438,0.0
53532.0,STARLINK-4483,PAYLOAD,2024-08-10 21:51:02,15.08847677,0.0002495,53.2156,138.8888,140.3196,219.7979,0.00067632,0.00010494,0.0,0 STARLINK-4483,1 53532U 22101F   24223.91044192  .00010494  00000-0  67632-3 0  9992,2 53532  53.2156 138.8888 0002495 140.3196 219.7979 15.08847677109243,6917.857,95.437,541.448,537.996,0.0
